{
  "norad_id": 51651,
  "name": "ONEWEB-0464",
  "history": [
    {
      "epoch": "2026-03-28T22:24:48.764736Z",
      "apogee_km": 1223.2418529710976,
      "perigee_km": 1220.1759231429369,
      "latitude_deg": -4.284996649167703e-05,
      "longitude_deg": -110.29711553322801,
      "height_km": 1224.6051212989269,
      "semi_major_axis_km": 7599.845888057017,
      "eccentricity": 0.00020171,
      "inclination_deg": 87.8807,
      "raan_deg": 52.2533,
      "arg_perigee_deg": 90.4488,
      "mean_anomaly_deg": 269.687,
      "mean_motion_rev_day": 13.10374954
    },
    {
      "epoch": "2026-03-29T03:54:40.581216Z",
      "apogee_km": 1223.24336455518,
      "perigee_km": 1220.1760664208095,
      "latitude_deg": 4.71291795281356e-05,
      "longitude_deg": 166.96560221985868,
      "height_km": 1224.603845249683,
      "semi_major_axis_km": 7599.8467154879945,
      "eccentricity": 0.0002018,
      "inclination_deg": 87.8808,
      "raan_deg": 52.2077,
      "arg_perigee_deg": 90.3706,
      "mean_anomaly_deg": 269.7653,
      "mean_motion_rev_day": 13.1037474
    },
    {
      "epoch": "2026-03-30T03:44:05.159328Z",
      "apogee_km": 1223.249809700993,
      "perigee_km": 1220.1749106498655,
      "latitude_deg": -1.0662319556511609e-05,
      "longitude_deg": 168.436895767813,
      "height_km": 1224.5963290389002,
      "semi_major_axis_km": 7599.849360175429,
      "eccentricity": 0.0002023,
      "inclination_deg": 87.8809,
      "raan_deg": 52.0098,
      "arg_perigee_deg": 89.9911,
      "mean_anomaly_deg": 270.1448,
      "mean_motion_rev_day": 13.10374056
    },
    {
      "epoch": "2026-03-30T14:43:48.883008Z",
      "apogee_km": 1223.2536483965414,
      "perigee_km": 1220.1781399273332,
      "latitude_deg": -1.5087596089315547e-05,
      "longitude_deg": 2.9617458658710243,
      "height_km": 1224.5966813591338,
      "semi_major_axis_km": 7599.852894161937,
      "eccentricity": 0.00020234,
      "inclination_deg": 87.881,
      "raan_deg": 51.9184,
      "arg_perigee_deg": 89.8726,
      "mean_anomaly_deg": 270.2633,
      "mean_motion_rev_day": 13.10373142
    },
    {
      "epoch": "2026-03-30T22:03:37.996992Z",
      "apogee_km": 1223.2534550320179,
      "perigee_km": 1220.1779466410444,
      "latitude_deg": -1.4911435536625443e-05,
      "longitude_deg": -107.35484048618396,
      "height_km": 1224.5939674631331,
      "semi_major_axis_km": 7599.852700836531,
      "eccentricity": 0.00020234,
      "inclination_deg": 87.881,
      "raan_deg": 51.8575,
      "arg_perigee_deg": 89.7787,
      "mean_anomaly_deg": 270.3572,
      "mean_motion_rev_day": 13.10373192
    },
    {
      "epoch": "2026-03-31T14:33:13.592448Z",
      "apogee_km": 1223.2515109300593,
      "perigee_km": 1220.1857291729302,
      "latitude_deg": -4.018150371717038e-05,
      "longitude_deg": 4.432492612105164,
      "height_km": 1224.5859946303647,
      "semi_major_axis_km": 7599.855620051494,
      "eccentricity": 0.0002017,
      "inclination_deg": 87.881,
      "raan_deg": 51.7205,
      "arg_perigee_deg": 89.3704,
      "mean_anomaly_deg": 270.7654,
      "mean_motion_rev_day": 13.10372437
    },
    {
      "epoch": "2026-04-01T14:22:38.440128Z",
      "apogee_km": 1223.2719916246624,
      "perigee_km": 1220.171249307511,
      "latitude_deg": -3.415286114242671e-06,
      "longitude_deg": 5.902964052097541,
      "height_km": 1224.5884901311308,
      "semi_major_axis_km": 7599.858620466086,
      "eccentricity": 0.000204,
      "inclination_deg": 87.8811,
      "raan_deg": 51.5229,
      "arg_perigee_deg": 89.3606,
      "mean_anomaly_deg": 270.7755,
      "mean_motion_rev_day": 13.10371661
    }
  ]
}